METHANESAT              
1 59101U 24043D   26094.24705425  .00006578  00000+0  56478-3 0  9997
2 59101  97.8335 224.9913 0008583 253.1396 106.8885 14.97777430113589
GOSAT-GW (IBUKI GW)     
1 64694U 25141A   26094.28149213  .00001596  00000+0  28976-3 0  9998
2 64694  98.0530  32.8175 0001444  85.5253 274.6117 14.67561356 41000
GHGSAT-C1               
1 46278U 20061G   26094.23558742  .00049364  00000+0  47462-3 0  9994
2 46278  97.2124 177.2121 0000109  39.2236 320.9033 15.66438453311886
GHGSAT-C12              
1 64529U 25135B   26094.25538673  .00007246  00000+0  34132-3 0  9996
2 64529  97.4654 209.7834 0006419  77.6028 282.5925 15.19802797 43599
GHGSAT-C13              
1 64548U 25135W   26094.29383289  .00006170  00000+0  28565-3 0  9990
2 64548  97.4681 210.2810 0002058  58.7376 301.4061 15.20475873 43621
GHGSAT-C2               
1 47509U 21006DA  26094.07779153  .00012474  00000+0  34725-3 0  9995
2 47509  97.2234 142.6181 0006929  80.6383 279.5645 15.36924410288462
GHGSAT-C3               
1 52737U 22057F   26094.32633737  .00013031  00000+0  40565-3 0  9995
2 52737  97.6485 237.3163 0006515  36.3178 323.8505 15.33409280214216
GHGSAT-C4               
1 52746U 22057Q   26094.28090560  .00013042  00000+0  40621-3 0  9996
2 52746  97.6410 236.1758 0006417  22.2056 337.9462 15.33392567214218
GHGSAT-C5               
1 52744U 22057N   26094.29892793  .00012909  00000+0  40214-3 0  9992
2 52744  97.6575 238.7761 0007300  30.4116 329.7548 15.33385301214212
GHGSAT-C6               
1 56204U 23054AC  26094.29527383  .00025797  00000+0  44752-3 0  9995
2 56204  97.3100   2.9808 0005001 325.7887  34.3043 15.50840272166994
GHGSAT-C7               
1 56209U 23054AH  26094.23409764  .00019769  00000+0  37482-3 0  9990
2 56209  97.3057   1.7366 0005957 315.5345  44.5427 15.48349402166942
GHGSAT-C8               
1 56186U 23054J   26094.26623072  .00026145  00000+0  45323-3 0  9996
2 56186  97.3053   2.3263 0004382   5.5784 354.5516 15.50860778166972
SENTINEL-5P             
1 42969U 17064A   26094.26172763  .00000130  00000+0  82677-4 0  9990
2 42969  98.7918  36.9257 0001227  89.3617 270.7699 14.19505957439071
ENMAP                   
1 52159U 22033C   26094.28873319  .00000885  00000+0  13897-3 0  9995
2 52159  97.9773 177.5867 0001552 105.3118 254.8262 14.75000763215762
PRISMA                  
1 44072U 19015A   26094.22481873  .00001733  00000+0  21621-3 0  9997
2 44072  97.8678 170.0868 0001373  88.4441 271.6930 14.83683875381088
SENTINEL-2A             
1 40697U 15028A   26094.29865591  .00000169  00000+0  81112-4 0  9990
2 40697  98.5647 170.2150 0001333  92.8659 267.2677 14.30817007563161
SENTINEL-2B             
1 42063U 17013A   26094.22148383  .00000112  00000+0  59472-4 0  9993
2 42063  98.5674 170.0492 0001196  95.4049 264.7270 14.30817234474069
SENTINEL-2C             
1 60989U 24157A   26094.18652929  .00000208  00000+0  95846-4 0  9999
2 60989  98.5651 170.0322 0001225 114.8029 245.3281 14.30824227 82400
LANDSAT 8               
1 39084U 13008A   26094.20526566  .00000597  00000+0  14256-3 0  9990
2 39084  98.1875 165.5063 0001217  89.7565 270.3773 14.57110253687123
LANDSAT 9               
1 49260U 21088A   26094.17112299  .00000661  00000+0  15665-3 0  9991
2 49260  98.1895 165.5400 0001179  97.6841 262.4492 14.57124864240228
TANAGER-1               
1 60507U 24149AR  26094.23538508  .00036424  00000+0  80359-3 0  9999
2 60507  97.3731 187.9617 0007137 201.6632 158.4315 15.43783502 91620
